$GPGGA,045324.189,3630.056,N,12715.936,E,1,12,1.0,0.0,M,0.0,M,,*63
$GPGSA,A,3,01,02,03,04,05,06,07,08,09,10,11,12,1.0,1.0,1.0*30
$GPRMC,045324.189,A,3630.056,N,12715.936,E,052.1,031.8,140122,000.0,W*7F
$GPGGA,045325.189,3630.069,N,12715.944,E,1,12,1.0,0.0,M,0.0,M,,*6B
$GPGSA,A,3,01,02,03,04,05,06,07,08,09,10,11,12,1.0,1.0,1.0*30
$GPRMC,045325.189,A,3630.069,N,12715.944,E,051.8,028.2,140122,000.0,W*7F
$GPGGA,045326.189,3630.082,N,12715.951,E,1,12,1.0,0.0,M,0.0,M,,*69
$GPGSA,A,3,01,02,03,04,05,06,07,08,09,10,11,12,1.0,1.0,1.0*30
$GPRMC,045326.189,A,3630.082,N,12715.951,E,054.7,027.9,140122,000.0,W*73
$GPGGA,045327.189,3630.096,N,12715.959,E,1,12,1.0,0.0,M,0.0,M,,*65
$GPGSA,A,3,01,02,03,04,05,06,07,08,09,10,11,12,1.0,1.0,1.0*30
$GPRMC,045327.189,A,3630.096,N,12715.959,E,048.8,016.3,140122,000.0,W*75
$GPGGA,045328.189,3630.109,N,12715.963,E,1,12,1.0,0.0,M,0.0,M,,*64
$GPGSA,A,3,01,02,03,04,05,06,07,08,09,10,11,12,1.0,1.0,1.0*30
$GPRMC,045328.189,A,3630.109,N,12715.963,E,058.0,028.6,140122,000.0,W*75
$GPGGA,045329.189,3630.124,N,12715.971,E,1,12,1.0,0.0,M,0.0,M,,*69
$GPGSA,A,3,01,02,03,04,05,06,07,08,09,10,11,12,1.0,1.0,1.0*30
$GPRMC,045329.189,A,3630.124,N,12715.971,E,060.1,023.1,140122,000.0,W*7E
$GPGGA,045330.189,3630.139,N,12715.977,E,1,12,1.0,0.0,M,0.0,M,,*6B
$GPGSA,A,3,01,02,03,04,05,06,07,08,09,10,11,12,1.0,1.0,1.0*30
$GPRMC,045330.189,A,3630.139,N,12715.977,E,054.3,026.8,140122,000.0,W*75
$GPGGA,045331.189,3630.153,N,12715.984,E,1,12,1.0,0.0,M,0.0,M,,*6A
$GPGSA,A,3,01,02,03,04,05,06,07,08,09,10,11,12,1.0,1.0,1.0*30
$GPRMC,045331.189,A,3630.153,N,12715.984,E,058.7,024.8,140122,000.0,W*7E
$GPGGA,045332.189,3630.169,N,12715.992,E,1,12,1.0,0.0,M,0.0,M,,*67
$GPGSA,A,3,01,02,03,04,05,06,07,08,09,10,11,12,1.0,1.0,1.0*30
$GPRMC,045332.189,A,3630.169,N,12715.992,E,053.9,022.1,140122,000.0,W*79
$GPGGA,045333.189,3630.183,N,12715.997,E,1,12,1.0,0.0,M,0.0,M,,*67
$GPGSA,A,3,01,02,03,04,05,06,07,08,09,10,11,12,1.0,1.0,1.0*30
$GPRMC,045333.189,A,3630.183,N,12715.997,E,060.8,025.1,140122,000.0,W*7F
$GPGGA,045334.189,3630.199,N,12716.005,E,1,12,1.0,0.0,M,0.0,M,,*6A
$GPGSA,A,3,01,02,03,04,05,06,07,08,09,10,11,12,1.0,1.0,1.0*30
$GPRMC,045334.189,A,3630.199,N,12716.005,E,056.3,023.5,140122,000.0,W*7E
$GPGGA,045335.189,3630.213,N,12716.011,E,1,12,1.0,0.0,M,0.0,M,,*6F
$GPGSA,A,3,01,02,03,04,05,06,07,08,09,10,11,12,1.0,1.0,1.0*30
$GPRMC,045335.189,A,3630.213,N,12716.011,E,051.7,030.8,140122,000.0,W*77
$GPGGA,045336.189,3630.226,N,12716.019,E,1,12,1.0,0.0,M,0.0,M,,*62
$GPGSA,A,3,01,02,03,04,05,06,07,08,09,10,11,12,1.0,1.0,1.0*30
$GPRMC,045336.189,A,3630.226,N,12716.019,E,059.9,025.4,140122,000.0,W*74
$GPGGA,045337.189,3630.242,N,12716.026,E,1,12,1.0,0.0,M,0.0,M,,*6D
$GPGSA,A,3,01,02,03,04,05,06,07,08,09,10,11,12,1.0,1.0,1.0*30
$GPRMC,045337.189,A,3630.242,N,12716.026,E,053.8,028.3,140122,000.0,W*7A
$GPGGA,045338.189,3630.256,N,12716.034,E,1,12,1.0,0.0,M,0.0,M,,*64
$GPGSA,A,3,01,02,03,04,05,06,07,08,09,10,11,12,1.0,1.0,1.0*30
$GPRMC,045338.189,A,3630.256,N,12716.034,E,122.4,024.9,140122,000.0,W*7E
$GPGGA,045339.189,3630.287,N,12716.049,E,1,12,1.0,0.0,M,0.0,M,,*63
$GPGSA,A,3,01,02,03,04,05,06,07,08,09,10,11,12,1.0,1.0,1.0*30
$GPRMC,045339.189,A,3630.287,N,12716.049,E,071.0,028.0,140122,000.0,W*7F
$GPGGA,045340.189,3630.305,N,12716.058,E,1,12,1.0,0.0,M,0.0,M,,*66
$GPGSA,A,3,01,02,03,04,05,06,07,08,09,10,11,12,1.0,1.0,1.0*30
$GPRMC,045340.189,A,3630.305,N,12716.058,E,055.4,015.6,140122,000.0,W*70
$GPGGA,045341.189,3630.320,N,12716.062,E,1,12,1.0,0.0,M,0.0,M,,*69
$GPGSA,A,3,01,02,03,04,05,06,07,08,09,10,11,12,1.0,1.0,1.0*30
$GPRMC,045341.189,A,3630.320,N,12716.062,E,059.5,021.1,140122,000.0,W*72
$GPGGA,045342.189,3630.336,N,12716.068,E,1,12,1.0,0.0,M,0.0,M,,*67
$GPGSA,A,3,01,02,03,04,05,06,07,08,09,10,11,12,1.0,1.0,1.0*30
$GPRMC,045342.189,A,3630.336,N,12716.068,E,038.2,015.6,140122,000.0,W*7C
$GPGGA,045343.189,3630.347,N,12716.071,E,1,12,1.0,0.0,M,0.0,M,,*68
$GPGSA,A,3,01,02,03,04,05,06,07,08,09,10,11,12,1.0,1.0,1.0*30
$GPRMC,045343.189,A,3630.347,N,12716.071,E,054.9,012.1,140122,000.0,W*72
$GPGGA,045344.189,3630.362,N,12716.075,E,1,12,1.0,0.0,M,0.0,M,,*6C
$GPGSA,A,3,01,02,03,04,05,06,07,08,09,10,11,12,1.0,1.0,1.0*30
$GPRMC,045344.189,A,3630.362,N,12716.075,E,066.2,359.0,140122,000.0,W*71
$GPGGA,045345.189,3630.380,N,12716.074,E,1,12,1.0,0.0,M,0.0,M,,*60
$GPGSA,A,3,01,02,03,04,05,06,07,08,09,10,11,12,1.0,1.0,1.0*30
$GPRMC,045345.189,A,3630.380,N,12716.074,E,067.4,353.1,140122,000.0,W*71
$GPGGA,045346.189,3630.399,N,12716.072,E,1,12,1.0,0.0,M,0.0,M,,*6D
$GPGSA,A,3,01,02,03,04,05,06,07,08,09,10,11,12,1.0,1.0,1.0*30
$GPRMC,045346.189,A,3630.399,N,12716.072,E,060.6,001.1,140122,000.0,W*7D
$GPGGA,045347.189,3630.415,N,12716.072,E,1,12,1.0,0.0,M,0.0,M,,*6F
$GPGSA,A,3,01,02,03,04,05,06,07,08,09,10,11,12,1.0,1.0,1.0*30
$GPRMC,045347.189,A,3630.415,N,12716.072,E,061.8,006.4,140122,000.0,W*72
$GPGGA,045348.189,3630.433,N,12716.074,E,1,12,1.0,0.0,M,0.0,M,,*62
$GPGSA,A,3,01,02,03,04,05,06,07,08,09,10,11,12,1.0,1.0,1.0*30
$GPRMC,045348.189,A,3630.433,N,12716.074,E,053.2,356.3,140122,000.0,W*75
$GPGGA,045349.189,3630.447,N,12716.073,E,1,12,1.0,0.0,M,0.0,M,,*67
$GPGSA,A,3,01,02,03,04,05,06,07,08,09,10,11,12,1.0,1.0,1.0*30
$GPRMC,045349.189,A,3630.447,N,12716.073,E,041.2,006.4,140122,000.0,W*72
$GPGGA,045350.189,3630.459,N,12716.075,E,1,12,1.0,0.0,M,0.0,M,,*66
$GPGSA,A,3,01,02,03,04,05,06,07,08,09,10,11,12,1.0,1.0,1.0*30
$GPRMC,045350.189,A,3630.459,N,12716.075,E,015.2,053.6,140122,000.0,W*70
$GPGGA,045351.189,3630.461,N,12716.078,E,1,12,1.0,0.0,M,0.0,M,,*61
$GPGSA,A,3,01,02,03,04,05,06,07,08,09,10,11,12,1.0,1.0,1.0*30
$GPRMC,045351.189,A,3630.461,N,12716.078,E,010.0,107.9,140122,000.0,W*7F
$GPGGA,045352.189,3630.460,N,12716.082,E,1,12,1.0,0.0,M,0.0,M,,*66
$GPGSA,A,3,01,02,03,04,05,06,07,08,09,10,11,12,1.0,1.0,1.0*30
$GPRMC,045352.189,A,3630.460,N,12716.082,E,035.4,111.9,140122,000.0,W*7C
$GPGGA,045353.189,3630.456,N,12716.093,E,1,12,1.0,0.0,M,0.0,M,,*62
$GPGSA,A,3,01,02,03,04,05,06,07,08,09,10,11,12,1.0,1.0,1.0*30
$GPRMC,045353.189,A,3630.456,N,12716.093,E,052.1,111.9,140122,000.0,W*7C
$GPGGA,045354.189,3630.450,N,12716.109,E,1,12,1.0,0.0,M,0.0,M,,*61
$GPGSA,A,3,01,02,03,04,05,06,07,08,09,10,11,12,1.0,1.0,1.0*30
$GPRMC,045354.189,A,3630.450,N,12716.109,E,050.9,109.5,140122,000.0,W*70
$GPGGA,045355.189,3630.444,N,12716.125,E,1,12,1.0,0.0,M,0.0,M,,*6B
$GPGSA,A,3,01,02,03,04,05,06,07,08,09,10,11,12,1.0,1.0,1.0*30
$GPRMC,045355.189,A,3630.444,N,12716.125,E,050.4,110.7,140122,000.0,W*7D
$GPGGA,045356.189,3630.438,N,12716.141,E,1,12,1.0,0.0,M,0.0,M,,*61
$GPGSA,A,3,01,02,03,04,05,06,07,08,09,10,11,12,1.0,1.0,1.0*30
$GPRMC,045356.189,A,3630.438,N,12716.141,E,071.3,111.1,140122,000.0,W*74
$GPGGA,045357.189,3630.429,N,12716.163,E,1,12,1.0,0.0,M,0.0,M,,*60
$GPGSA,A,3,01,02,03,04,05,06,07,08,09,10,11,12,1.0,1.0,1.0*30
$GPRMC,045357.189,A,3630.429,N,12716.163,E,053.7,106.6,140122,000.0,W*70
$GPGGA,045358.189,3630.424,N,12716.180,E,1,12,1.0,0.0,M,0.0,M,,*6F
$GPGSA,A,3,01,02,03,04,05,06,07,08,09,10,11,12,1.0,1.0,1.0*30
$GPRMC,045358.189,A,3630.424,N,12716.180,E,059.6,106.5,140122,000.0,W*77
$GPGGA,045359.189,3630.419,N,12716.199,E,1,12,1.0,0.0,M,0.0,M,,*68
$GPGSA,A,3,01,02,03,04,05,06,07,08,09,10,11,12,1.0,1.0,1.0*30
$GPRMC,045359.189,A,3630.419,N,12716.199,E,055.6,108.6,140122,000.0,W*71
$GPGGA,045400.189,3630.413,N,12716.217,E,1,12,1.0,0.0,M,0.0,M,,*6C
$GPGSA,A,3,01,02,03,04,05,06,07,08,09,10,11,12,1.0,1.0,1.0*30
$GPRMC,045400.189,A,3630.413,N,12716.217,E,054.9,107.1,140122,000.0,W*73
$GPGGA,045401.189,3630.407,N,12716.235,E,1,12,1.0,0.0,M,0.0,M,,*68
$GPGSA,A,3,01,02,03,04,05,06,07,08,09,10,11,12,1.0,1.0,1.0*30
$GPRMC,045401.189,A,3630.407,N,12716.235,E,073.1,109.1,140122,000.0,W*74
$GPGGA,045402.189,3630.399,N,12716.258,E,1,12,1.0,0.0,M,0.0,M,,*60
$GPGSA,A,3,01,02,03,04,05,06,07,08,09,10,11,12,1.0,1.0,1.0*30
$GPRMC,045402.189,A,3630.399,N,12716.258,E,062.2,103.4,140122,000.0,W*70
$GPGGA,045403.189,3630.394,N,12716.279,E,1,12,1.0,0.0,M,0.0,M,,*6F
$GPGSA,A,3,01,02,03,04,05,06,07,08,09,10,11,12,1.0,1.0,1.0*30
$GPRMC,045403.189,A,3630.394,N,12716.279,E,056.1,099.3,140122,000.0,W*7E
$GPGGA,045404.189,3630.391,N,12716.298,E,1,12,1.0,0.0,M,0.0,M,,*62
$GPGSA,A,3,01,02,03,04,05,06,07,08,09,10,11,12,1.0,1.0,1.0*30
$GPRMC,045404.189,A,3630.391,N,12716.298,E,055.4,112.3,140122,000.0,W*77
$GPGGA,045405.189,3630.384,N,12716.315,E,1,12,1.0,0.0,M,0.0,M,,*63
$GPGSA,A,3,01,02,03,04,05,06,07,08,09,10,11,12,1.0,1.0,1.0*30
$GPRMC,045405.189,A,3630.384,N,12716.315,E,048.1,107.7,140122,000.0,W*7F
$GPGGA,045406.189,3630.379,N,12716.330,E,1,12,1.0,0.0,M,0.0,M,,*65
$GPGSA,A,3,01,02,03,04,05,06,07,08,09,10,11,12,1.0,1.0,1.0*30
$GPRMC,045406.189,A,3630.379,N,12716.330,E,050.5,114.8,140122,000.0,W*79
$GPGGA,045407.189,3630.372,N,12716.345,E,1,12,1.0,0.0,M,0.0,M,,*6D
$GPGSA,A,3,01,02,03,04,05,06,07,08,09,10,11,12,1.0,1.0,1.0*30
$GPRMC,045407.189,A,3630.372,N,12716.345,E,060.8,106.9,140122,000.0,W*7D
$GPGGA,045408.189,3630.366,N,12716.365,E,1,12,1.0,0.0,M,0.0,M,,*65
$GPGSA,A,3,01,02,03,04,05,06,07,08,09,10,11,12,1.0,1.0,1.0*30
$GPRMC,045408.189,A,3630.366,N,12716.365,E,065.9,110.7,140122,000.0,W*78
$GPGGA,045409.189,3630.359,N,12716.386,E,1,12,1.0,0.0,M,0.0,M,,*65
$GPGSA,A,3,01,02,03,04,05,06,07,08,09,10,11,12,1.0,1.0,1.0*30
$GPRMC,045409.189,A,3630.359,N,12716.386,E,058.1,105.3,140122,000.0,W*7E
$GPGGA,045410.189,3630.353,N,12716.405,E,1,12,1.0,0.0,M,0.0,M,,*6B
$GPGSA,A,3,01,02,03,04,05,06,07,08,09,10,11,12,1.0,1.0,1.0*30
$GPRMC,045410.189,A,3630.353,N,12716.405,E,081.3,104.7,140122,000.0,W*73
$GPGGA,045411.189,3630.346,N,12716.431,E,1,12,1.0,0.0,M,0.0,M,,*69
$GPGSA,A,3,01,02,03,04,05,06,07,08,09,10,11,12,1.0,1.0,1.0*30
$GPRMC,045411.189,A,3630.346,N,12716.431,E,056.3,110.1,140122,000.0,W*78
$GPGGA,045412.189,3630.340,N,12716.449,E,1,12,1.0,0.0,M,0.0,M,,*63
$GPGSA,A,3,01,02,03,04,05,06,07,08,09,10,11,12,1.0,1.0,1.0*30
$GPRMC,045412.189,A,3630.340,N,12716.449,E,087.8,104.1,140122,000.0,W*70
$GPGGA,045413.189,3630.333,N,12716.478,E,1,12,1.0,0.0,M,0.0,M,,*64
$GPGSA,A,3,01,02,03,04,05,06,07,08,09,10,11,12,1.0,1.0,1.0*30
$GPRMC,045413.189,A,3630.333,N,12716.478,E,056.3,103.3,140122,000.0,W*75
$GPGGA,045414.189,3630.328,N,12716.497,E,1,12,1.0,0.0,M,0.0,M,,*68
$GPGSA,A,3,01,02,03,04,05,06,07,08,09,10,11,12,1.0,1.0,1.0*30
$GPRMC,045414.189,A,3630.328,N,12716.497,E,067.8,105.0,140122,000.0,W*75
$GPGGA,045415.189,3630.322,N,12716.519,E,1,12,1.0,0.0,M,0.0,M,,*64
$GPGSA,A,3,01,02,03,04,05,06,07,08,09,10,11,12,1.0,1.0,1.0*30
$GPRMC,045415.189,A,3630.322,N,12716.519,E,066.0,105.5,140122,000.0,W*75
$GPGGA,045416.189,3630.316,N,12716.540,E,1,12,1.0,0.0,M,0.0,M,,*6C
$GPGSA,A,3,01,02,03,04,05,06,07,08,09,10,11,12,1.0,1.0,1.0*30
$GPRMC,045416.189,A,3630.316,N,12716.540,E,062.4,101.2,140122,000.0,W*7E
$GPGGA,045417.189,3630.312,N,12716.561,E,1,12,1.0,0.0,M,0.0,M,,*6A
$GPGSA,A,3,01,02,03,04,05,06,07,08,09,10,11,12,1.0,1.0,1.0*30
$GPRMC,045417.189,A,3630.312,N,12716.561,E,065.3,101.4,140122,000.0,W*7E
$GPGGA,045418.189,3630.308,N,12716.583,E,1,12,1.0,0.0,M,0.0,M,,*62
$GPGSA,A,3,01,02,03,04,05,06,07,08,09,10,11,12,1.0,1.0,1.0*30
$GPRMC,045418.189,A,3630.308,N,12716.583,E,056.1,102.5,140122,000.0,W*76
$GPGGA,045419.189,3630.304,N,12716.602,E,1,12,1.0,0.0,M,0.0,M,,*65
$GPGSA,A,3,01,02,03,04,05,06,07,08,09,10,11,12,1.0,1.0,1.0*30
$GPRMC,045419.189,A,3630.304,N,12716.602,E,055.8,097.8,140122,000.0,W*7B
$GPGGA,045420.189,3630.301,N,12716.621,E,1,12,1.0,0.0,M,0.0,M,,*6B
$GPGSA,A,3,01,02,03,04,05,06,07,08,09,10,11,12,1.0,1.0,1.0*30
$GPRMC,045420.189,A,3630.301,N,12716.621,E,069.5,099.4,140122,000.0,W*75
$GPGGA,045421.189,3630.297,N,12716.644,E,1,12,1.0,0.0,M,0.0,M,,*67
$GPGSA,A,3,01,02,03,04,05,06,07,08,09,10,11,12,1.0,1.0,1.0*30
$GPRMC,045421.189,A,3630.297,N,12716.644,E,054.1,098.8,140122,000.0,W*7E
$GPGGA,045422.189,3630.294,N,12716.663,E,1,12,1.0,0.0,M,0.0,M,,*62
$GPGSA,A,3,01,02,03,04,05,06,07,08,09,10,11,12,1.0,1.0,1.0*30
$GPRMC,045422.189,A,3630.294,N,12716.663,E,064.0,100.2,140122,000.0,W*73
$GPGGA,045423.189,3630.290,N,12716.684,E,1,12,1.0,0.0,M,0.0,M,,*6E
$GPGSA,A,3,01,02,03,04,05,06,07,08,09,10,11,12,1.0,1.0,1.0*30
$GPRMC,045423.189,A,3630.290,N,12716.684,E,048.4,099.0,140122,000.0,W*76
$GPGGA,045424.189,3630.288,N,12716.701,E,1,12,1.0,0.0,M,0.0,M,,*6C
$GPGSA,A,3,01,02,03,04,05,06,07,08,09,10,11,12,1.0,1.0,1.0*30
$GPRMC,045424.189,A,3630.288,N,12716.701,E,043.9,099.9,140122,000.0,W*7B
$GPGGA,045425.189,3630.285,N,12716.715,E,1,12,1.0,0.0,M,0.0,M,,*65
$GPGSA,A,3,01,02,03,04,05,06,07,08,09,10,11,12,1.0,1.0,1.0*30
$GPRMC,045425.189,A,3630.285,N,12716.715,E,054.3,099.6,140122,000.0,W*71
$GPGGA,045426.189,3630.282,N,12716.734,E,1,12,1.0,0.0,M,0.0,M,,*62
$GPGSA,A,3,01,02,03,04,05,06,07,08,09,10,11,12,1.0,1.0,1.0*30
$GPRMC,045426.189,A,3630.282,N,12716.734,E,062.0,099.8,140122,000.0,W*7E
$GPGGA,045427.189,3630.279,N,12716.755,E,1,12,1.0,0.0,M,0.0,M,,*60
$GPGSA,A,3,01,02,03,04,05,06,07,08,09,10,11,12,1.0,1.0,1.0*30
$GPRMC,045427.189,A,3630.279,N,12716.755,E,006.6,128.9,140122,000.0,W*72
$GPGGA,045428.189,3630.277,N,12716.756,E,1,12,1.0,0.0,M,0.0,M,,*62
$GPGSA,A,3,01,02,03,04,05,06,07,08,09,10,11,12,1.0,1.0,1.0*30
$GPRMC,045428.189,A,3630.277,N,12716.756,E,011.5,197.2,140122,000.0,W*7A
$GPGGA,045429.189,3630.274,N,12716.755,E,1,12,1.0,0.0,M,0.0,M,,*63
$GPGSA,A,3,01,02,03,04,05,06,07,08,09,10,11,12,1.0,1.0,1.0*30
$GPRMC,045429.189,A,3630.274,N,12716.755,E,040.2,206.4,140122,000.0,W*75
$GPGGA,045430.189,3630.264,N,12716.750,E,1,12,1.0,0.0,M,0.0,M,,*6F
$GPGSA,A,3,01,02,03,04,05,06,07,08,09,10,11,12,1.0,1.0,1.0*30
$GPRMC,045430.189,A,3630.264,N,12716.750,E,040.5,198.0,140122,000.0,W*7E
$GPGGA,045431.189,3630.253,N,12716.747,E,1,12,1.0,0.0,M,0.0,M,,*6C
$GPGSA,A,3,01,02,03,04,05,06,07,08,09,10,11,12,1.0,1.0,1.0*30
$GPRMC,045431.189,A,3630.253,N,12716.747,E,041.1,196.1,140122,000.0,W*77
$GPGGA,045432.189,3630.242,N,12716.743,E,1,12,1.0,0.0,M,0.0,M,,*6B
$GPGSA,A,3,01,02,03,04,05,06,07,08,09,10,11,12,1.0,1.0,1.0*30
$GPRMC,045432.189,A,3630.242,N,12716.743,E,033.1,206.1,140122,000.0,W*7F
$GPGGA,045433.189,3630.233,N,12716.739,E,1,12,1.0,0.0,M,0.0,M,,*61
$GPGSA,A,3,01,02,03,04,05,06,07,08,09,10,11,12,1.0,1.0,1.0*30
$GPRMC,045433.189,A,3630.233,N,12716.739,E,015.3,223.7,140122,000.0,W*72
$GPGGA,045434.189,3630.230,N,12716.736,E,1,12,1.0,0.0,M,0.0,M,,*6A
$GPGSA,A,3,01,02,03,04,05,06,07,08,09,10,11,12,1.0,1.0,1.0*30
$GPRMC,045434.189,A,3630.230,N,12716.736,E,023.4,208.4,140122,000.0,W*71
$GPGGA,045435.189,3630.224,N,12716.733,E,1,12,1.0,0.0,M,0.0,M,,*6B
$GPGSA,A,3,01,02,03,04,05,06,07,08,09,10,11,12,1.0,1.0,1.0*30
$GPRMC,045435.189,A,3630.224,N,12716.733,E,045.2,197.6,140122,000.0,W*71
$GPGGA,045436.189,3630.212,N,12716.729,E,1,12,1.0,0.0,M,0.0,M,,*66
$GPGSA,A,3,01,02,03,04,05,06,07,08,09,10,11,12,1.0,1.0,1.0*30
$GPRMC,045436.189,A,3630.212,N,12716.729,E,025.4,200.9,140122,000.0,W*7E
$GPGGA,045437.189,3630.205,N,12716.726,E,1,12,1.0,0.0,M,0.0,M,,*6E
$GPGSA,A,3,01,02,03,04,05,06,07,08,09,10,11,12,1.0,1.0,1.0*30
$GPRMC,045437.189,A,3630.205,N,12716.726,E,053.7,201.0,140122,000.0,W*7C
$GPGGA,045438.189,3630.191,N,12716.721,E,1,12,1.0,0.0,M,0.0,M,,*68
$GPGSA,A,3,01,02,03,04,05,06,07,08,09,10,11,12,1.0,1.0,1.0*30
$GPRMC,045438.189,A,3630.191,N,12716.721,E,035.4,202.5,140122,000.0,W*7F
$GPGGA,045439.189,3630.182,N,12716.717,E,1,12,1.0,0.0,M,0.0,M,,*6E
$GPGSA,A,3,01,02,03,04,05,06,07,08,09,10,11,12,1.0,1.0,1.0*30
$GPRMC,045439.189,A,3630.182,N,12716.717,E,014.7,139.3,140122,000.0,W*74
$GPGGA,045440.189,3630.178,N,12716.720,E,1,12,1.0,0.0,M,0.0,M,,*61
$GPGSA,A,3,01,02,03,04,05,06,07,08,09,10,11,12,1.0,1.0,1.0*30
$GPRMC,045440.189,A,3630.178,N,12716.720,E,020.1,206.4,140122,000.0,W*72
$GPGGA,045441.189,3630.173,N,12716.717,E,1,12,1.0,0.0,M,0.0,M,,*6F
$GPGSA,A,3,01,02,03,04,05,06,07,08,09,10,11,12,1.0,1.0,1.0*30
$GPRMC,045441.189,A,3630.173,N,12716.717,E,048.4,199.2,140122,000.0,W*74
$GPGGA,045442.189,3630.160,N,12716.713,E,1,12,1.0,0.0,M,0.0,M,,*6A
$GPGSA,A,3,01,02,03,04,05,06,07,08,09,10,11,12,1.0,1.0,1.0*30
$GPRMC,045442.189,A,3630.160,N,12716.713,E,057.6,197.2,140122,000.0,W*73
$GPGGA,045443.189,3630.145,N,12716.708,E,1,12,1.0,0.0,M,0.0,M,,*66
$GPGSA,A,3,01,02,03,04,05,06,07,08,09,10,11,12,1.0,1.0,1.0*30
$GPRMC,045443.189,A,3630.145,N,12716.708,E,058.1,202.8,140122,000.0,W*72
$GPGGA,045444.189,3630.129,N,12716.702,E,1,12,1.0,0.0,M,0.0,M,,*61
$GPGSA,A,3,01,02,03,04,05,06,07,08,09,10,11,12,1.0,1.0,1.0*30
$GPRMC,045444.189,A,3630.129,N,12716.702,E,008.6,235.4,140122,000.0,W*7F
$GPGGA,045445.189,3630.128,N,12716.699,E,1,12,1.0,0.0,M,0.0,M,,*62
$GPGSA,A,3,01,02,03,04,05,06,07,08,09,10,11,12,1.0,1.0,1.0*30
$GPRMC,045445.189,A,3630.128,N,12716.699,E,013.9,254.0,140122,000.0,W*7A
$GPGGA,045446.189,3630.126,N,12716.695,E,1,12,1.0,0.0,M,0.0,M,,*63
$GPGSA,A,3,01,02,03,04,05,06,07,08,09,10,11,12,1.0,1.0,1.0*30
$GPRMC,045446.189,A,3630.126,N,12716.695,E,052.8,284.2,140122,000.0,W*70
$GPGGA,045447.189,3630.131,N,12716.677,E,1,12,1.0,0.0,M,0.0,M,,*68
$GPGSA,A,3,01,02,03,04,05,06,07,08,09,10,11,12,1.0,1.0,1.0*30
$GPRMC,045447.189,A,3630.131,N,12716.677,E,056.3,283.3,140122,000.0,W*72
$GPGGA,045448.189,3630.135,N,12716.659,E,1,12,1.0,0.0,M,0.0,M,,*6F
$GPGSA,A,3,01,02,03,04,05,06,07,08,09,10,11,12,1.0,1.0,1.0*30
$GPRMC,045448.189,A,3630.135,N,12716.659,E,053.1,285.0,140122,000.0,W*77
$GPGGA,045449.189,3630.140,N,12716.641,E,1,12,1.0,0.0,M,0.0,M,,*65
$GPGSA,A,3,01,02,03,04,05,06,07,08,09,10,11,12,1.0,1.0,1.0*30
$GPRMC,045449.189,A,3630.140,N,12716.641,E,031.3,300.8,140122,000.0,W*7F
$GPGGA,045450.189,3630.145,N,12716.633,E,1,12,1.0,0.0,M,0.0,M,,*6D
$GPGSA,A,3,01,02,03,04,05,06,07,08,09,10,11,12,1.0,1.0,1.0*30
$GPRMC,045450.189,A,3630.145,N,12716.633,E,043.4,282.1,140122,000.0,W*77
$GPGGA,045451.189,3630.148,N,12716.618,E,1,12,1.0,0.0,M,0.0,M,,*68
$GPGSA,A,3,01,02,03,04,05,06,07,08,09,10,11,12,1.0,1.0,1.0*30
$GPRMC,045451.189,A,3630.148,N,12716.618,E,064.0,283.1,140122,000.0,W*72
$GPGGA,045452.189,3630.153,N,12716.597,E,1,12,1.0,0.0,M,0.0,M,,*65
$GPGSA,A,3,01,02,03,04,05,06,07,08,09,10,11,12,1.0,1.0,1.0*30
$GPRMC,045452.189,A,3630.153,N,12716.597,E,053.9,284.8,140122,000.0,W*7C
$GPGGA,045453.189,3630.158,N,12716.579,E,1,12,1.0,0.0,M,0.0,M,,*6F
$GPGSA,A,3,01,02,03,04,05,06,07,08,09,10,11,12,1.0,1.0,1.0*30
$GPRMC,045453.189,A,3630.158,N,12716.579,E,062.8,287.1,140122,000.0,W*7F
$GPGGA,045454.189,3630.164,N,12716.559,E,1,12,1.0,0.0,M,0.0,M,,*65
$GPGSA,A,3,01,02,03,04,05,06,07,08,09,10,11,12,1.0,1.0,1.0*30
$GPRMC,045454.189,A,3630.164,N,12716.559,E,044.5,286.0,140122,000.0,W*7C
$GPGGA,045455.189,3630.168,N,12716.545,E,1,12,1.0,0.0,M,0.0,M,,*65
$GPGSA,A,3,01,02,03,04,05,06,07,08,09,10,11,12,1.0,1.0,1.0*30
$GPRMC,045455.189,A,3630.168,N,12716.545,E,031.1,263.0,140122,000.0,W*71
$GPGGA,045456.189,3630.167,N,12716.534,E,1,12,1.0,0.0,M,0.0,M,,*6F
$GPGSA,A,3,01,02,03,04,05,06,07,08,09,10,11,12,1.0,1.0,1.0*30
$GPRMC,045456.189,A,3630.167,N,12716.534,E,051.1,287.5,140122,000.0,W*72
$GPGGA,045457.189,3630.172,N,12716.518,E,1,12,1.0,0.0,M,0.0,M,,*64
$GPGSA,A,3,01,02,03,04,05,06,07,08,09,10,11,12,1.0,1.0,1.0*30
$GPRMC,045457.189,A,3630.172,N,12716.518,E,051.9,287.2,140122,000.0,W*76
$GPGGA,045458.189,3630.177,N,12716.501,E,1,12,1.0,0.0,M,0.0,M,,*66
$GPGSA,A,3,01,02,03,04,05,06,07,08,09,10,11,12,1.0,1.0,1.0*30
$GPRMC,045458.189,A,3630.177,N,12716.501,E,046.6,286.2,140122,000.0,W*7C
$GPGGA,045459.189,3630.182,N,12716.486,E,1,12,1.0,0.0,M,0.0,M,,*63
$GPGSA,A,3,01,02,03,04,05,06,07,08,09,10,11,12,1.0,1.0,1.0*30
$GPRMC,045459.189,A,3630.182,N,12716.486,E,054.2,291.9,140122,000.0,W*73
$GPGGA,045500.189,3630.188,N,12716.469,E,1,12,1.0,0.0,M,0.0,M,,*65
$GPGSA,A,3,01,02,03,04,05,06,07,08,09,10,11,12,1.0,1.0,1.0*30
$GPRMC,045500.189,A,3630.188,N,12716.469,E,050.2,287.9,140122,000.0,W*76
$GPGGA,045501.189,3630.193,N,12716.453,E,1,12,1.0,0.0,M,0.0,M,,*67
$GPGSA,A,3,01,02,03,04,05,06,07,08,09,10,11,12,1.0,1.0,1.0*30
$GPRMC,045501.189,A,3630.193,N,12716.453,E,050.1,285.0,140122,000.0,W*7C
$GPGGA,045502.189,3630.198,N,12716.436,E,1,12,1.0,0.0,M,0.0,M,,*6C
$GPGSA,A,3,01,02,03,04,05,06,07,08,09,10,11,12,1.0,1.0,1.0*30
$GPRMC,045502.189,A,3630.198,N,12716.436,E,049.5,283.3,140122,000.0,W*7E
$GPGGA,045503.189,3630.202,N,12716.420,E,1,12,1.0,0.0,M,0.0,M,,*6A
$GPGSA,A,3,01,02,03,04,05,06,07,08,09,10,11,12,1.0,1.0,1.0*30
$GPRMC,045503.189,A,3630.202,N,12716.420,E,055.4,286.0,140122,000.0,W*72
$GPGGA,045504.189,3630.207,N,12716.402,E,1,12,1.0,0.0,M,0.0,M,,*68
$GPGSA,A,3,01,02,03,04,05,06,07,08,09,10,11,12,1.0,1.0,1.0*30
$GPRMC,045504.189,A,3630.207,N,12716.402,E,024.9,280.5,140122,000.0,W*78
$GPGGA,045505.189,3630.208,N,12716.394,E,1,12,1.0,0.0,M,0.0,M,,*6E
$GPGSA,A,3,01,02,03,04,05,06,07,08,09,10,11,12,1.0,1.0,1.0*30
$GPRMC,045505.189,A,3630.208,N,12716.394,E,029.3,262.6,140122,000.0,W*76
$GPGGA,045506.189,3630.207,N,12716.384,E,1,12,1.0,0.0,M,0.0,M,,*63
$GPGSA,A,3,01,02,03,04,05,06,07,08,09,10,11,12,1.0,1.0,1.0*30
$GPRMC,045506.189,A,3630.207,N,12716.384,E,069.9,287.3,140122,000.0,W*7B
$GPGGA,045507.189,3630.214,N,12716.361,E,1,12,1.0,0.0,M,0.0,M,,*6B
$GPGSA,A,3,01,02,03,04,05,06,07,08,09,10,11,12,1.0,1.0,1.0*30
$GPRMC,045507.189,A,3630.214,N,12716.361,E,055.7,284.3,140122,000.0,W*71
$GPGGA,045508.189,3630.219,N,12716.343,E,1,12,1.0,0.0,M,0.0,M,,*69
$GPGSA,A,3,01,02,03,04,05,06,07,08,09,10,11,12,1.0,1.0,1.0*30
$GPRMC,045508.189,A,3630.219,N,12716.343,E,050.5,288.7,140122,000.0,W*7C
$GPGGA,045509.189,3630.224,N,12716.327,E,1,12,1.0,0.0,M,0.0,M,,*64
$GPGSA,A,3,01,02,03,04,05,06,07,08,09,10,11,12,1.0,1.0,1.0*30
$GPRMC,045509.189,A,3630.224,N,12716.327,E,062.8,287.1,140122,000.0,W*74
$GPGGA,045510.189,3630.230,N,12716.306,E,1,12,1.0,0.0,M,0.0,M,,*6A
$GPGSA,A,3,01,02,03,04,05,06,07,08,09,10,11,12,1.0,1.0,1.0*30
$GPRMC,045510.189,A,3630.230,N,12716.306,E,062.2,285.7,140122,000.0,W*74
$GPGGA,045511.189,3630.236,N,12716.286,E,1,12,1.0,0.0,M,0.0,M,,*64
$GPGSA,A,3,01,02,03,04,05,06,07,08,09,10,11,12,1.0,1.0,1.0*30
$GPRMC,045511.189,A,3630.236,N,12716.286,E,059.0,287.4,140122,000.0,W*71
$GPGGA,045512.189,3630.242,N,12716.267,E,1,12,1.0,0.0,M,0.0,M,,*6B
$GPGSA,A,3,01,02,03,04,05,06,07,08,09,10,11,12,1.0,1.0,1.0*30
$GPRMC,045512.189,A,3630.242,N,12716.267,E,051.1,287.5,140122,000.0,W*76
$GPGGA,045513.189,3630.247,N,12716.251,E,1,12,1.0,0.0,M,0.0,M,,*6A
$GPGSA,A,3,01,02,03,04,05,06,07,08,09,10,11,12,1.0,1.0,1.0*30
$GPRMC,045513.189,A,3630.247,N,12716.251,E,050.4,290.7,140122,000.0,W*77
$GPGGA,045514.189,3630.253,N,12716.235,E,1,12,1.0,0.0,M,0.0,M,,*6A
$GPGSA,A,3,01,02,03,04,05,06,07,08,09,10,11,12,1.0,1.0,1.0*30
$GPRMC,045514.189,A,3630.253,N,12716.235,E,046.6,286.2,140122,000.0,W*70
$GPGGA,045515.189,3630.258,N,12716.220,E,1,12,1.0,0.0,M,0.0,M,,*64
$GPGSA,A,3,01,02,03,04,05,06,07,08,09,10,11,12,1.0,1.0,1.0*30
$GPRMC,045515.189,A,3630.258,N,12716.220,E,012.7,283.9,140122,000.0,W*70
$GPGGA,045516.189,3630.259,N,12716.216,E,1,12,1.0,0.0,M,0.0,M,,*63
$GPGSA,A,3,01,02,03,04,05,06,07,08,09,10,11,12,1.0,1.0,1.0*30
$GPRMC,045516.189,A,3630.259,N,12716.216,E,010.9,253.7,140122,000.0,W*78
$GPGGA,045517.189,3630.258,N,12716.212,E,1,12,1.0,0.0,M,0.0,M,,*67
$GPGSA,A,3,01,02,03,04,05,06,07,08,09,10,11,12,1.0,1.0,1.0*30
$GPRMC,045517.189,A,3630.258,N,12716.212,E,021.7,210.6,140122,000.0,W*76
$GPGGA,045518.189,3630.252,N,12716.209,E,1,12,1.0,0.0,M,0.0,M,,*68
$GPGSA,A,3,01,02,03,04,05,06,07,08,09,10,11,12,1.0,1.0,1.0*30
$GPRMC,045518.189,A,3630.252,N,12716.209,E,028.6,203.2,140122,000.0,W*77
$GPGGA,045519.189,3630.245,N,12716.206,E,1,12,1.0,0.0,M,0.0,M,,*60
$GPGSA,A,3,01,02,03,04,05,06,07,08,09,10,11,12,1.0,1.0,1.0*30
$GPRMC,045519.189,A,3630.245,N,12716.206,E,041.9,205.3,140122,000.0,W*78
$GPGGA,045520.189,3630.234,N,12716.200,E,1,12,1.0,0.0,M,0.0,M,,*6A
$GPGSA,A,3,01,02,03,04,05,06,07,08,09,10,11,12,1.0,1.0,1.0*30
$GPRMC,045520.189,A,3630.234,N,12716.200,E,049.5,204.1,140122,000.0,W*75
$GPGGA,045521.189,3630.221,N,12716.195,E,1,12,1.0,0.0,M,0.0,M,,*60
$GPGSA,A,3,01,02,03,04,05,06,07,08,09,10,11,12,1.0,1.0,1.0*30
$GPRMC,045521.189,A,3630.221,N,12716.195,E,047.2,206.7,140122,000.0,W*72
$GPGGA,045522.189,3630.209,N,12716.189,E,1,12,1.0,0.0,M,0.0,M,,*64
$GPGSA,A,3,01,02,03,04,05,06,07,08,09,10,11,12,1.0,1.0,1.0*30
$GPRMC,045522.189,A,3630.209,N,12716.189,E,051.4,207.1,140122,000.0,W*70
$GPGGA,045523.189,3630.196,N,12716.182,E,1,12,1.0,0.0,M,0.0,M,,*6B
$GPGSA,A,3,01,02,03,04,05,06,07,08,09,10,11,12,1.0,1.0,1.0*30
$GPRMC,045523.189,A,3630.196,N,12716.182,E,060.1,208.7,140122,000.0,W*71
$GPGGA,045524.189,3630.180,N,12716.173,E,1,12,1.0,0.0,M,0.0,M,,*65
$GPGSA,A,3,01,02,03,04,05,06,07,08,09,10,11,12,1.0,1.0,1.0*30
$GPRMC,045524.189,A,3630.180,N,12716.173,E,051.9,201.7,140122,000.0,W*7C
$GPGGA,045525.189,3630.167,N,12716.168,E,1,12,1.0,0.0,M,0.0,M,,*67
$GPGSA,A,3,01,02,03,04,05,06,07,08,09,10,11,12,1.0,1.0,1.0*30
$GPRMC,045525.189,A,3630.167,N,12716.168,E,044.8,205.1,140122,000.0,W*79
$GPGGA,045526.189,3630.155,N,12716.162,E,1,12,1.0,0.0,M,0.0,M,,*6F
$GPGSA,A,3,01,02,03,04,05,06,07,08,09,10,11,12,1.0,1.0,1.0*30
$GPRMC,045526.189,A,3630.155,N,12716.162,E,049.7,208.0,140122,000.0,W*7F
$GPGGA,045527.189,3630.142,N,12716.156,E,1,12,1.0,0.0,M,0.0,M,,*6F
$GPGSA,A,3,01,02,03,04,05,06,07,08,09,10,11,12,1.0,1.0,1.0*30
$GPRMC,045527.189,A,3630.142,N,12716.156,E,063.1,203.1,140122,000.0,W*7B
$GPGGA,045528.189,3630.126,N,12716.149,E,1,12,1.0,0.0,M,0.0,M,,*6C
$GPGSA,A,3,01,02,03,04,05,06,07,08,09,10,11,12,1.0,1.0,1.0*30
$GPRMC,045528.189,A,3630.126,N,12716.149,E,057.9,210.9,140122,000.0,W*7D
$GPGGA,045529.189,3630.111,N,12716.140,E,1,12,1.0,0.0,M,0.0,M,,*60
$GPGSA,A,3,01,02,03,04,05,06,07,08,09,10,11,12,1.0,1.0,1.0*30
$GPRMC,045529.189,A,3630.111,N,12716.140,E,054.3,206.8,140122,000.0,W*7E
$GPGGA,045530.189,3630.097,N,12716.133,E,1,12,1.0,0.0,M,0.0,M,,*63
$GPGSA,A,3,01,02,03,04,05,06,07,08,09,10,11,12,1.0,1.0,1.0*30
$GPRMC,045530.189,A,3630.097,N,12716.133,E,056.0,202.5,140122,000.0,W*75
$GPGGA,045531.189,3630.082,N,12716.127,E,1,12,1.0,0.0,M,0.0,M,,*63
$GPGSA,A,3,01,02,03,04,05,06,07,08,09,10,11,12,1.0,1.0,1.0*30
$GPRMC,045531.189,A,3630.082,N,12716.127,E,062.3,206.6,140122,000.0,W*76
$GPGGA,045532.189,3630.066,N,12716.119,E,1,12,1.0,0.0,M,0.0,M,,*67
$GPGSA,A,3,01,02,03,04,05,06,07,08,09,10,11,12,1.0,1.0,1.0*30
$GPRMC,045532.189,A,3630.066,N,12716.119,E,055.4,203.9,140122,000.0,W*7B
$GPGGA,045533.189,3630.052,N,12716.112,E,1,12,1.0,0.0,M,0.0,M,,*6A
$GPGSA,A,3,01,02,03,04,05,06,07,08,09,10,11,12,1.0,1.0,1.0*30
$GPRMC,045533.189,A,3630.052,N,12716.112,E,056.3,203.5,140122,000.0,W*7E
$GPGGA,045534.189,3630.037,N,12716.106,E,1,12,1.0,0.0,M,0.0,M,,*6B
$GPGSA,A,3,01,02,03,04,05,06,07,08,09,10,11,12,1.0,1.0,1.0*30
$GPRMC,045534.189,A,3630.037,N,12716.106,E,053.4,209.8,140122,000.0,W*7A
$GPGGA,045535.189,3630.024,N,12716.098,E,1,12,1.0,0.0,M,0.0,M,,*6E
$GPGSA,A,3,01,02,03,04,05,06,07,08,09,10,11,12,1.0,1.0,1.0*30
$GPRMC,045535.189,A,3630.024,N,12716.098,E,032.7,204.3,140122,000.0,W*7D
$GPGGA,045536.189,3630.015,N,12716.094,E,1,12,1.0,0.0,M,0.0,M,,*63
$GPGSA,A,3,01,02,03,04,05,06,07,08,09,10,11,12,1.0,1.0,1.0*30
$GPRMC,045536.189,A,3630.015,N,12716.094,E,020.9,205.3,140122,000.0,W*7C
$GPGGA,045537.189,3630.010,N,12716.092,E,1,12,1.0,0.0,M,0.0,M,,*61
$GPGSA,A,3,01,02,03,04,05,06,07,08,09,10,11,12,1.0,1.0,1.0*30
$GPRMC,045537.189,A,3630.010,N,12716.092,E,011.8,255.0,140122,000.0,W*7B
$GPGGA,045538.189,3630.009,N,12716.088,E,1,12,1.0,0.0,M,0.0,M,,*6D
$GPGSA,A,3,01,02,03,04,05,06,07,08,09,10,11,12,1.0,1.0,1.0*30
$GPRMC,045538.189,A,3630.009,N,12716.088,E,029.3,288.4,140122,000.0,W*73
$GPGGA,045539.189,3630.012,N,12716.078,E,1,12,1.0,0.0,M,0.0,M,,*69
$GPGSA,A,3,01,02,03,04,05,06,07,08,09,10,11,12,1.0,1.0,1.0*30
$GPRMC,045539.189,A,3630.012,N,12716.078,E,049.0,287.3,140122,000.0,W*7A
$GPGGA,045540.189,3630.017,N,12716.063,E,1,12,1.0,0.0,M,0.0,M,,*68
$GPGSA,A,3,01,02,03,04,05,06,07,08,09,10,11,12,1.0,1.0,1.0*30
$GPRMC,045540.189,A,3630.017,N,12716.063,E,034.5,285.4,140122,000.0,W*71
$GPGGA,045541.189,3630.020,N,12716.051,E,1,12,1.0,0.0,M,0.0,M,,*6C
$GPGSA,A,3,01,02,03,04,05,06,07,08,09,10,11,12,1.0,1.0,1.0*30
$GPRMC,045541.189,A,3630.020,N,12716.051,E,050.4,285.9,140122,000.0,W*7B
$GPGGA,045542.189,3630.025,N,12716.035,E,1,12,1.0,0.0,M,0.0,M,,*68
$GPGSA,A,3,01,02,03,04,05,06,07,08,09,10,11,12,1.0,1.0,1.0*30
$GPRMC,045542.189,A,3630.025,N,12716.035,E,029.2,291.9,140122,000.0,W*72
$GPGGA,045543.189,3630.028,N,12716.026,E,1,12,1.0,0.0,M,0.0,M,,*66
$GPGSA,A,3,01,02,03,04,05,06,07,08,09,10,11,12,1.0,1.0,1.0*30
$GPRMC,045543.189,A,3630.028,N,12716.026,E,046.3,285.3,140122,000.0,W*7B
$GPGGA,045544.189,3630.032,N,12716.011,E,1,12,1.0,0.0,M,0.0,M,,*6E
$GPGSA,A,3,01,02,03,04,05,06,07,08,09,10,11,12,1.0,1.0,1.0*30
$GPRMC,045544.189,A,3630.032,N,12716.011,E,025.1,282.2,140122,000.0,W*72
$GPGGA,045545.189,3630.034,N,12716.003,E,1,12,1.0,0.0,M,0.0,M,,*6A
$GPGSA,A,3,01,02,03,04,05,06,07,08,09,10,11,12,1.0,1.0,1.0*30
$GPRMC,045545.189,A,3630.034,N,12716.003,E,048.5,288.6,140122,000.0,W*77
$GPGGA,045546.189,3630.039,N,12715.987,E,1,12,1.0,0.0,M,0.0,M,,*62
$GPGSA,A,3,01,02,03,04,05,06,07,08,09,10,11,12,1.0,1.0,1.0*30
$GPRMC,045546.189,A,3630.039,N,12715.987,E,041.4,288.5,140122,000.0,W*74
$GPGGA,045547.189,3630.044,N,12715.974,E,1,12,1.0,0.0,M,0.0,M,,*65
$GPGSA,A,3,01,02,03,04,05,06,07,08,09,10,11,12,1.0,1.0,1.0*30
$GPRMC,045547.189,A,3630.044,N,12715.974,E,045.7,286.6,140122,000.0,W*79
$GPGGA,045548.189,3630.048,N,12715.959,E,1,12,1.0,0.0,M,0.0,M,,*69
$GPGSA,A,3,01,02,03,04,05,06,07,08,09,10,11,12,1.0,1.0,1.0*30
$GPRMC,045548.189,A,3630.048,N,12715.959,E,037.7,286.5,140122,000.0,W*73
$GPGGA,045549.189,3630.052,N,12715.947,E,1,12,1.0,0.0,M,0.0,M,,*6C
$GPGSA,A,3,01,02,03,04,05,06,07,08,09,10,11,12,1.0,1.0,1.0*30
$GPRMC,045549.189,A,3630.052,N,12715.947,E,022.2,288.2,140122,000.0,W*7E
$GPGGA,045550.189,3630.054,N,12715.940,E,1,12,1.0,0.0,M,0.0,M,,*65
$GPGSA,A,3,01,02,03,04,05,06,07,08,09,10,11,12,1.0,1.0,1.0*30
$GPRMC,045550.189,A,3630.054,N,12715.940,E,007.7,281.4,140122,000.0,W*7A
$GPGGA,045551.189,3630.055,N,12715.937,E,1,12,1.0,0.0,M,0.0,M,,*65
$GPGSA,A,3,01,02,03,04,05,06,07,08,09,10,11,12,1.0,1.0,1.0*30
$GPRMC,045551.189,A,3630.055,N,12715.937,E,007.7,281.4,140122,000.0,W*7A
